{
    "links": {
        "self": "http://www.neowsapp.com/rest/v1/neo/3780632?api_key=iIulBulltgU6a56xZRHN4H3l9WmuAYTsLGpBGhQ2"
    },
    "id": "3780632",
    "neo_reference_id": "3780632",
    "name": "(2017 PD25)",
    "designation": "2017 PD25",
    "nasa_jpl_url": "http://ssd.jpl.nasa.gov/sbdb.cgi?sstr=3780632",
    "absolute_magnitude_h": 25.2,
    "estimated_diameter": {
        "kilometers": {
            "estimated_diameter_min": 0.0242412481,
            "estimated_diameter_max": 0.0542050786
        },
        "meters": {
            "estimated_diameter_min": 24.2412481101,
            "estimated_diameter_max": 54.2050786336
        },
        "miles": {
            "estimated_diameter_min": 0.0150628086,
            "estimated_diameter_max": 0.0336814639
        },
        "feet": {
            "estimated_diameter_min": 79.5316564495,
            "estimated_diameter_max": 177.8381901842
        }
    },
    "is_potentially_hazardous_asteroid": false,
    "close_approach_data": [
        {
            "close_approach_date": "2017-08-16",
            "close_approach_date_full": "2017-Aug-16 03:46",
            "epoch_date_close_approach": 1502855160000,
            "relative_velocity": {
                "kilometers_per_second": "7.8695304076",
                "kilometers_per_hour": "28330.3094674566",
                "miles_per_hour": "17603.3525688205"
            },
            "miss_distance": {
                "astronomical": "0.0247182635",
                "lunar": "9.6154045015",
                "kilometers": "3697799.569698745",
                "miles": "2297706.106562881"
            },
            "orbiting_body": "Earth"
        }
    ],
    "orbital_data": {
        "orbit_id": "5",
        "orbit_determination_date": "2017-08-17 06:19:35",
        "first_observation_date": "2017-08-12",
        "last_observation_date": "2017-08-16",
        "data_arc_in_days": 4,
        "observations_used": 42,
        "orbit_uncertainty": "7",
        "minimum_orbit_intersection": ".0165399",
        "jupiter_tisserand_invariant": "3.460",
        "epoch_osculation": "2459000.5",
        "eccentricity": ".5391383030973039",
        "semi_major_axis": "2.199119172829954",
        "inclination": "2.279283097572945",
        "ascending_node_longitude": "311.7295020375651",
        "orbital_period": "1191.164040573181",
        "perihelion_distance": "1.013489793681666",
        "perihelion_argument": "30.46785353493459",
        "aphelion_distance": "3.384748551978241",
        "perihelion_time": "2459188.225147440279",
        "mean_anomaly": "303.2646967364958",
        "mean_motion": ".3022253759664958",
        "equinox": "J2000",
        "orbit_class": {
            "orbit_class_type": "APO",
            "orbit_class_description": "Near-Earth asteroid orbits which cross the Earth’s orbit similar to that of 1862 Apollo",
            "orbit_class_range": "a (semi-major axis) > 1.0 AU; q (perihelion) < 1.017 AU"
        }
    },
    "is_sentry_object": false
}